OBJECT_NAME,OBJECT_ID,EPOCH,MEAN_MOTION,ECCENTRICITY,INCLINATION,RA_OF_ASC_NODE,ARG_OF_PERICENTER,MEAN_ANOMALY,EPHEMERIS_TYPE,CLASSIFICATION_TYPE,NORAD_CAT_ID,ELEMENT_SET_NO,REV_AT_EPOCH,BSTAR,MEAN_MOTION_DOT,MEAN_MOTION_DDOT
STARLINK-2338,2021-018G,2026-06-05T09:52:34.267872,15.31704300,.0001338,53.1589,191.0923,64.2359,295.8780,0,U,47793,999,29019,-.30614E-5,-.46E-5,0
STARLINK-2373,2021-018K,2026-06-05T09:29:54.046752,15.33473982,.0002622,53.1557,190.9217,31.8572,328.2588,0,U,47796,999,29020,.12147E-2,.39696E-3,0
STARLINK-2377,2021-018L,2026-06-05T10:18:44.992224,15.31706267,.0001111,53.1559,207.2521,83.5478,276.5649,0,U,47797,999,28998,.10452E-3,.288E-4,0
STARLINK-2379,2021-018M,2026-06-05T08:45:27.389376,15.31705661,.0001416,53.1587,191.3080,96.8493,263.2669,0,U,47798,999,29019,.37486E-4,.798E-5,0
STARLINK-2380,2021-018N,2026-06-05T09:09:59.421600,15.31707364,.0001239,53.1574,184.2349,80.6902,279.4240,0,U,47799,999,29029,.8365E-4,.2232E-4,0
STARLINK-2381,2021-018P,2026-06-05T08:58:51.450240,15.31715532,.0001103,53.1574,191.1764,107.8436,252.2685,0,U,47800,999,29019,.13357E-3,.3784E-4,0
STARLINK-2383,2021-018R,2026-06-05T14:40:35.063616,15.31718250,.0001296,53.1579,206.8784,72.4608,287.6535,0,U,47802,999,29001,.36894E-3,.11107E-3,0
STARLINK-2385,2021-018T,2026-06-05T08:42:45.748800,15.31709780,.0001138,53.1584,182.3538,87.2140,272.8992,0,U,47804,999,29032,.35872E-4,.749E-5,0
STARLINK-2386,2021-018U,2026-06-05T10:00:10.539360,15.22318855,.000371,53.0970,193.6767,17.2016,342.9105,0,U,47805,999,29016,.16322E-2,.37972E-3,0
STARLINK-2388,2021-018W,2026-06-05T07:16:43.246848,15.31708493,.0000965,53.1558,169.1502,67.5058,292.6045,0,U,47807,999,29050,.14595E-3,.4168E-4,0
STARLINK-2395,2021-018AD,2026-06-05T09:13:59.026080,15.31709200,.0001159,53.1570,194.8920,73.6889,286.4240,0,U,47814,999,29022,.109E-3,.302E-4,0
STARLINK-2396,2021-018AE,2026-06-05T09:07:14.800224,15.31705135,.0001081,53.1574,194.7897,77.8148,282.2975,0,U,47815,999,29015,.73792E-4,.1926E-4,0
STARLINK-2399,2021-018AF,2026-06-05T10:53:20.964768,15.31683848,.0001437,53.1592,209.9399,99.8089,260.3075,0,U,47816,999,28993,.42932E-3,.12974E-3,0
STARLINK-2400,2021-018AG,2026-06-05T09:47:35.824128,15.31710142,.0001187,53.1568,195.0939,108.4936,251.6194,0,U,47817,999,29015,.12241E-5,-.327E-5,0
STARLINK-2402,2021-018AJ,2026-06-05T09:40:54.058944,15.31689558,.0001282,53.1571,195.0315,90.3974,269.7174,0,U,47819,999,29022,-.71579E-5,-.587E-5,0
STARLINK-2406,2021-018AL,2026-06-05T08:20:20.570784,15.31698938,.0001087,53.1580,195.1610,82.0560,278.0565,0,U,47821,999,29015,.22962E-4,.348E-5,0
STARLINK-2407,2021-018AM,2026-06-05T09:38:27.445920,15.31704269,.0001687,53.1585,207.2858,104.2271,255.8918,0,U,47822,999,28999,.2316E-4,.353E-5,0
STARLINK-2408,2021-018AN,2026-06-05T10:46:37.099200,15.31697669,.0001005,53.1571,209.8367,104.2374,255.8739,0,U,47823,999,28994,.63414E-4,.1603E-4,0
STARLINK-2410,2021-018AQ,2026-06-05T09:00:33.606144,15.31706752,.0001143,53.1586,194.9574,85.3737,274.7395,0,U,47825,999,29016,.46102E-4,.1066E-4,0
STARLINK-2411,2021-018AR,2026-06-05T10:14:52.872576,15.31698384,.0001023,53.1584,197.2632,106.1618,253.9496,0,U,47826,999,29013,.47128E-5,-.219E-5,0
STARLINK-2413,2021-018AS,2026-06-05T09:20:10.064832,15.31710185,.0001195,53.1577,194.6451,97.8238,262.2899,0,U,47827,999,29021,.91087E-4,.2463E-4,0
STARLINK-2415,2021-018AT,2026-06-05T09:45:10.013760,15.31707447,.0001138,53.1584,207.2757,90.6966,269.4166,0,U,47828,999,28999,.77497E-4,.2041E-4,0
STARLINK-2419,2021-018AV,2026-06-05T10:52:22.103040,15.31673104,.0001579,53.1585,207.3784,94.5152,265.6030,0,U,47830,999,28998,.49875E-3,.1513E-3,0
STARLINK-2420,2021-018AW,2026-06-05T10:00:27.650016,15.31701949,.0001352,53.1577,194.6161,70.6766,289.4381,0,U,47831,999,29020,.26315E-5,-.284E-5,0
STARLINK-2422,2021-018AX,2026-06-05T13:09:26.225280,15.31717722,.0001196,53.1571,197.0238,92.2549,267.8590,0,U,47832,999,29014,.46463E-4,.1078E-4,0
STARLINK-2423,2021-018AY,2026-06-05T10:58:42.824640,15.31701751,.0001215,53.1572,208.0464,79.0364,281.0774,0,U,47833,999,29002,.29565E-4,.552E-5,0
