STARLINK-2338           
1 47793U 21018G   26156.41150773 -.00000460  00000+0 -30614-5 0  9990
2 47793  53.1589 191.0923 0001338  64.2359 295.8780 15.31704300290196
STARLINK-2373           
1 47796U 21018K   26156.39576443  .00039696  00000+0  12147-2 0  9995
2 47796  53.1557 190.9217 0002622  31.8572 328.2588 15.33473982290202
STARLINK-2377           
1 47797U 21018L   26156.42968741  .00002880  00000+0  10452-3 0  9999
2 47797  53.1559 207.2521 0001111  83.5478 276.5649 15.31706267289985
STARLINK-2379           
1 47798U 21018M   26156.36490034  .00000798  00000+0  37486-4 0  9991
2 47798  53.1587 191.3080 0001416  96.8493 263.2669 15.31705661290199
STARLINK-2380           
1 47799U 21018N   26156.38193775  .00002232  00000+0  83650-4 0  9995
2 47799  53.1574 184.2349 0001239  80.6902 279.4240 15.31707364290291
STARLINK-2381           
1 47800U 21018P   26156.37420660  .00003784  00000+0  13357-3 0  9992
2 47800  53.1574 191.1764 0001103 107.8436 252.2685 15.31715532290193
STARLINK-2383           
1 47802U 21018R   26156.61151694  .00011107  00000+0  36894-3 0  9998
2 47802  53.1579 206.8784 0001296  72.4608 287.6535 15.31718250290014
STARLINK-2385           
1 47804U 21018T   26156.36302950  .00000749  00000+0  35872-4 0  9991
2 47804  53.1584 182.3538 0001138  87.2140 272.8992 15.31709780290322
STARLINK-2386           
1 47805U 21018U   26156.41678865  .00037972  00000+0  16322-2 0  9994
2 47805  53.0970 193.6767 0003710  17.2016 342.9105 15.22318855290169
STARLINK-2388           
1 47807U 21018W   26156.30327832  .00004168  00000+0  14595-3 0  9991
2 47807  53.1558 169.1502 0000965  67.5058 292.6045 15.31708493290505
STARLINK-2395           
1 47814U 21018AD  26156.38471095  .00003020  00000+0  10900-3 0  9990
2 47814  53.1570 194.8920 0001159  73.6889 286.4240 15.31709200290226
STARLINK-2396           
1 47815U 21018AE  26156.38003241  .00001926  00000+0  73792-4 0  9997
2 47815  53.1574 194.7897 0001081  77.8148 282.2975 15.31705135290155
STARLINK-2399           
1 47816U 21018AF  26156.45371487  .00012974  00000+0  42932-3 0  9992
2 47816  53.1592 209.9399 0001437  99.8089 260.3075 15.31683848289933
STARLINK-2400           
1 47817U 21018AG  26156.40805352 -.00000327  00000+0  12241-5 0  9993
2 47817  53.1568 195.0939 0001187 108.4936 251.6194 15.31710142290151
STARLINK-2402           
1 47819U 21018AJ  26156.40340346 -.00000587  00000+0 -71579-5 0  9990
2 47819  53.1571 195.0315 0001282  90.3974 269.7174 15.31689558290224
STARLINK-2406           
1 47821U 21018AL  26156.34746031  .00000348  00000+0  22962-4 0  9991
2 47821  53.1580 195.1610 0001087  82.0560 278.0565 15.31698938290159
STARLINK-2407           
1 47822U 21018AM  26156.40170655  .00000353  00000+0  23160-4 0  9999
2 47822  53.1585 207.2858 0001687 104.2271 255.8918 15.31704269289996
STARLINK-2408           
1 47823U 21018AN  26156.44904050  .00001603  00000+0  63414-4 0  9993
2 47823  53.1571 209.8367 0001005 104.2374 255.8739 15.31697669289944
STARLINK-2410           
1 47825U 21018AQ  26156.37538896  .00001066  00000+0  46102-4 0  9996
2 47825  53.1586 194.9574 0001143  85.3737 274.7395 15.31706752290169
STARLINK-2411           
1 47826U 21018AR  26156.42700084 -.00000219  00000+0  47128-5 0  9993
2 47826  53.1584 197.2632 0001023 106.1618 253.9496 15.31698384290135
STARLINK-2413           
1 47827U 21018AS  26156.38900538  .00002463  00000+0  91087-4 0  9999
2 47827  53.1577 194.6451 0001195  97.8238 262.2899 15.31710185290215
STARLINK-2415           
1 47828U 21018AT  26156.40636590  .00002041  00000+0  77497-4 0  9998
2 47828  53.1584 207.2757 0001138  90.6966 269.4166 15.31707447289996
STARLINK-2419           
1 47830U 21018AV  26156.45303360  .00015130  00000+0  49875-3 0  9993
2 47830  53.1585 207.3784 0001579  94.5152 265.6030 15.31673104289989
STARLINK-2420           
1 47831U 21018AW  26156.41698669 -.00000284  00000+0  26315-5 0  9990
2 47831  53.1577 194.6161 0001352  70.6766 289.4381 15.31701949290202
STARLINK-2422           
1 47832U 21018AX  26156.54822020  .00001078  00000+0  46463-4 0  9991
2 47832  53.1571 197.0238 0001196  92.2549 267.8590 15.31717722290145
STARLINK-2423           
1 47833U 21018AY  26156.45744010  .00000552  00000+0  29565-4 0  9994
2 47833  53.1572 208.0464 0001215  79.0364 281.0774 15.31701751290025
